RAPIDEYE 2              
1 33312U 08040A   17108.84201263  .00000050  00000-0  13383-4 0  9994
2 33312  97.8193 191.3660 0012745 178.0243 182.1010 14.79907235466591
RAPIDEYE 5              
1 33313U 08040B   17108.86494069  .00000088  00000-0  18415-4 0  9997
2 33313  97.8321 189.2684 0017818  62.5980 297.7027 14.79902881466546
RAPIDEYE 1              
1 33314U 08040C   17108.85335014  .00000059  00000-0  14634-4 0  9998
2 33314  97.8213 190.9845 0023792 194.3871 165.6658 14.79908157466585
RAPIDEYE 3              
1 33315U 08040D   17108.82225819  .00000072  00000-0  16244-4 0  9991
2 33315  97.8347 188.8763 0013123 131.8007 228.4320 14.79910405466542
RAPIDEYE 4              
1 33316U 08040E   17108.80886077  .00000093  00000-0  19058-4 0  9998
2 33316  97.8389 188.4087 0012574  81.6149 278.6482 14.79905670466535